CCSDS_OMM_VERS = 2.0
CREATION_DATE  = 
ORIGINATOR     = 

OBJECT_NAME    = RSP-03
OBJECT_ID      = 1998-067XL
CENTER_NAME    = EARTH
REF_FRAME      = TEME
TIME_SYSTEM    = UTC
MEAN_ELEMENT_THEORY = SGP/SGP4

EPOCH          = 2026-02-10T15:43:42.483648
MEAN_MOTION    = 16.06559094
ECCENTRICITY   = .00086346
INCLINATION    = 51.6137
RA_OF_ASC_NODE = 185.4785
ARG_OF_PERICENTER = 314.7136
MEAN_ANOMALY   = 45.3173

EPHEMERIS_TYPE = 0
CLASSIFICATION_TYPE = U
NORAD_CAT_ID   = 65732
ELEMENT_SET_NO = 999
REV_AT_EPOCH   = 2264
BSTAR          = .13882528E-2
MEAN_MOTION_DOT = .1075305E-1
MEAN_MOTION_DDOT = .65736384E-3

CCSDS_OMM_VERS = 2.0
CREATION_DATE  = 
ORIGINATOR     = 

OBJECT_NAME    = YOTSUBA-KULOVER
OBJECT_ID      = 1998-067XN
CENTER_NAME    = EARTH
REF_FRAME      = TEME
TIME_SYSTEM    = UTC
MEAN_ELEMENT_THEORY = SGP/SGP4

EPOCH          = 2026-02-10T14:54:22.034304
MEAN_MOTION    = 15.71400666
ECCENTRICITY   = .00042018
INCLINATION    = 51.6247
RA_OF_ASC_NODE = 196.6445
ARG_OF_PERICENTER = 273.7808
MEAN_ANOMALY   = 86.2709

EPHEMERIS_TYPE = 0
CLASSIFICATION_TYPE = U
NORAD_CAT_ID   = 65941
ELEMENT_SET_NO = 999
REV_AT_EPOCH   = 1923
BSTAR          = .96994921E-3
MEAN_MOTION_DOT = .127709E-2
MEAN_MOTION_DDOT = 0

CCSDS_OMM_VERS = 2.0
CREATION_DATE  = 
ORIGINATOR     = 

OBJECT_NAME    = BOTAN
OBJECT_ID      = 1998-067XP
CENTER_NAME    = EARTH
REF_FRAME      = TEME
TIME_SYSTEM    = UTC
MEAN_ELEMENT_THEORY = SGP/SGP4

EPOCH          = 2026-02-10T16:02:22.531776
MEAN_MOTION    = 15.85896603
ECCENTRICITY   = .00067513
INCLINATION    = 51.6183
RA_OF_ASC_NODE = 192.4071
ARG_OF_PERICENTER = 298.4455
MEAN_ANOMALY   = 61.5868

EPHEMERIS_TYPE = 0
CLASSIFICATION_TYPE = U
NORAD_CAT_ID   = 65942
ELEMENT_SET_NO = 999
REV_AT_EPOCH   = 1929
BSTAR          = .14101619E-2
MEAN_MOTION_DOT = .36852E-2
MEAN_MOTION_DDOT = 0

CCSDS_OMM_VERS = 2.0
CREATION_DATE  = 
ORIGINATOR     = 

OBJECT_NAME    = E-KAGAKU-1
OBJECT_ID      = 1998-067XQ
CENTER_NAME    = EARTH
REF_FRAME      = TEME
TIME_SYSTEM    = UTC
MEAN_ELEMENT_THEORY = SGP/SGP4

EPOCH          = 2026-02-10T14:55:42.377664
MEAN_MOTION    = 15.71293302
ECCENTRICITY   = .00037589
INCLINATION    = 51.6276
RA_OF_ASC_NODE = 196.6625
ARG_OF_PERICENTER = 288.3820
MEAN_ANOMALY   = 71.6768

EPHEMERIS_TYPE = 0
CLASSIFICATION_TYPE = U
NORAD_CAT_ID   = 65943
ELEMENT_SET_NO = 999
REV_AT_EPOCH   = 1923
BSTAR          = .9650001E-3
MEAN_MOTION_DOT = .126449E-2
MEAN_MOTION_DDOT = 0

CCSDS_OMM_VERS = 2.0
CREATION_DATE  = 
ORIGINATOR     = 

OBJECT_NAME    = HRC MONOBLOCK CAMERA
OBJECT_ID      = 1998-067XR
CENTER_NAME    = EARTH
REF_FRAME      = TEME
TIME_SYSTEM    = UTC
MEAN_ELEMENT_THEORY = SGP/SGP4

EPOCH          = 2026-02-10T16:18:36.832608
MEAN_MOTION    = 15.59402032
ECCENTRICITY   = .00013934
INCLINATION    = 51.6276
RA_OF_ASC_NODE = 201.5485
ARG_OF_PERICENTER = 357.5048
MEAN_ANOMALY   = 2.5937

EPHEMERIS_TYPE = 0
CLASSIFICATION_TYPE = U
NORAD_CAT_ID   = 66052
ELEMENT_SET_NO = 999
REV_AT_EPOCH   = 1817
BSTAR          = .56726038E-3
MEAN_MOTION_DOT = .45451E-3
MEAN_MOTION_DDOT = 0

CCSDS_OMM_VERS = 2.0
CREATION_DATE  = 
ORIGINATOR     = 

OBJECT_NAME    = HTV-X1
OBJECT_ID      = 2025-241A
CENTER_NAME    = EARTH
REF_FRAME      = TEME
TIME_SYSTEM    = UTC
MEAN_ELEMENT_THEORY = SGP/SGP4

EPOCH          = 2026-02-10T20:36:33.239520
MEAN_MOTION    = 15.48531925
ECCENTRICITY   = .00110713
INCLINATION    = 51.6314
RA_OF_ASC_NODE = 204.9914
ARG_OF_PERICENTER = 85.6051
MEAN_ANOMALY   = 274.6202

EPHEMERIS_TYPE = 0
CLASSIFICATION_TYPE = U
NORAD_CAT_ID   = 66174
ELEMENT_SET_NO = 999
REV_AT_EPOCH   = 51
BSTAR          = .19841919E-3
MEAN_MOTION_DOT = .10337E-3
MEAN_MOTION_DDOT = 0

CCSDS_OMM_VERS = 2.0
CREATION_DATE  = 
ORIGINATOR     = 

OBJECT_NAME    = SZ-21 MODULE
OBJECT_ID      = 2025-246C
CENTER_NAME    = EARTH
REF_FRAME      = TEME
TIME_SYSTEM    = UTC
MEAN_ELEMENT_THEORY = SGP/SGP4

EPOCH          = 2026-02-10T07:03:44.699040
MEAN_MOTION    = 15.66465298
ECCENTRICITY   = .00027
INCLINATION    = 41.4767
RA_OF_ASC_NODE = 11.7270
ARG_OF_PERICENTER = 289.3019
MEAN_ANOMALY   = 70.7530

EPHEMERIS_TYPE = 0
CLASSIFICATION_TYPE = U
NORAD_CAT_ID   = 66515
ELEMENT_SET_NO = 999
REV_AT_EPOCH   = 1377
BSTAR          = .32044E-3
MEAN_MOTION_DOT = .34158E-3
MEAN_MOTION_DDOT = 0

CCSDS_OMM_VERS = 2.0
CREATION_DATE  = 
ORIGINATOR     = 

OBJECT_NAME    = SHENZHOU-22
OBJECT_ID      = 2025-272A
CENTER_NAME    = EARTH
REF_FRAME      = TEME
TIME_SYSTEM    = UTC
MEAN_ELEMENT_THEORY = SGP/SGP4

EPOCH          = 2026-02-10T21:25:18.135264
MEAN_MOTION    = 15.59457517
ECCENTRICITY   = .0004356
INCLINATION    = 41.4682
RA_OF_ASC_NODE = 11.0651
ARG_OF_PERICENTER = 54.5327
MEAN_ANOMALY   = 305.5918

EPHEMERIS_TYPE = 0
CLASSIFICATION_TYPE = U
NORAD_CAT_ID   = 66645
ELEMENT_SET_NO = 999
REV_AT_EPOCH   = 26764
BSTAR          = .28056315E-3
MEAN_MOTION_DOT = .22594E-3
MEAN_MOTION_DDOT = 0

CCSDS_OMM_VERS = 2.0
CREATION_DATE  = 
ORIGINATOR     = 

OBJECT_NAME    = SOYUZ-MS 28
OBJECT_ID      = 2025-275A
CENTER_NAME    = EARTH
REF_FRAME      = TEME
TIME_SYSTEM    = UTC
MEAN_ELEMENT_THEORY = SGP/SGP4

EPOCH          = 2026-02-10T20:36:33.239520
MEAN_MOTION    = 15.48531925
ECCENTRICITY   = .00110713
INCLINATION    = 51.6314
RA_OF_ASC_NODE = 204.9914
ARG_OF_PERICENTER = 85.6051
MEAN_ANOMALY   = 274.6202

EPHEMERIS_TYPE = 0
CLASSIFICATION_TYPE = U
NORAD_CAT_ID   = 66664
ELEMENT_SET_NO = 999
REV_AT_EPOCH   = 128
BSTAR          = .19841919E-3
MEAN_MOTION_DOT = .10337E-3
MEAN_MOTION_DDOT = 0

CCSDS_OMM_VERS = 2.0
CREATION_DATE  = 
ORIGINATOR     = 

OBJECT_NAME    = DUPLEX
OBJECT_ID      = 1998-067XS
CENTER_NAME    = EARTH
REF_FRAME      = TEME
TIME_SYSTEM    = UTC
MEAN_ELEMENT_THEORY = SGP/SGP4

EPOCH          = 2026-02-10T15:54:52.422336
MEAN_MOTION    = 15.54322290
ECCENTRICITY   = .00013176
INCLINATION    = 51.6288
RA_OF_ASC_NODE = 204.4385
ARG_OF_PERICENTER = 72.6028
MEAN_ANOMALY   = 287.5106

EPHEMERIS_TYPE = 0
CLASSIFICATION_TYPE = U
NORAD_CAT_ID   = 66906
ELEMENT_SET_NO = 999
REV_AT_EPOCH   = 1092
BSTAR          = .51085445E-3
MEAN_MOTION_DOT = .33721E-3
MEAN_MOTION_DDOT = 0

CCSDS_OMM_VERS = 2.0
CREATION_DATE  = 
ORIGINATOR     = 

OBJECT_NAME    = ISS OBJECT XT
OBJECT_ID      = 1998-067XT
CENTER_NAME    = EARTH
REF_FRAME      = TEME
TIME_SYSTEM    = UTC
MEAN_ELEMENT_THEORY = SGP/SGP4

EPOCH          = 2026-02-10T15:23:52.942272
MEAN_MOTION    = 15.62053811
ECCENTRICITY   = .00017725
INCLINATION    = 51.6270
RA_OF_ASC_NODE = 202.7925
ARG_OF_PERICENTER = 258.6617
MEAN_ANOMALY   = 101.4178

EPHEMERIS_TYPE = 0
CLASSIFICATION_TYPE = U
NORAD_CAT_ID   = 66907
ELEMENT_SET_NO = 999
REV_AT_EPOCH   = 1094
BSTAR          = .1205296E-2
MEAN_MOTION_DOT = .108458E-2
MEAN_MOTION_DDOT = 0

CCSDS_OMM_VERS = 2.0
CREATION_DATE  = 
ORIGINATOR     = 

OBJECT_NAME    = ISS OBJECT XU
OBJECT_ID      = 1998-067XU
CENTER_NAME    = EARTH
REF_FRAME      = TEME
TIME_SYSTEM    = UTC
MEAN_ELEMENT_THEORY = SGP/SGP4

EPOCH          = 2026-02-10T15:22:59.908224
MEAN_MOTION    = 15.62090146
ECCENTRICITY   = .00016161
INCLINATION    = 51.6271
RA_OF_ASC_NODE = 202.7865
ARG_OF_PERICENTER = 263.4646
MEAN_ANOMALY   = 96.6164

EPHEMERIS_TYPE = 0
CLASSIFICATION_TYPE = U
NORAD_CAT_ID   = 66908
ELEMENT_SET_NO = 999
REV_AT_EPOCH   = 1094
BSTAR          = .12234704E-2
MEAN_MOTION_DOT = .110282E-2
MEAN_MOTION_DDOT = 0

